[
    {
        "CCSDS_OMM_VERS": "3.0",
        "COMMENT": "GENERATED VIA SPACE-TRACK.ORG API",
        "CREATION_DATE": "2025-03-02T18:08:23",
        "ORIGINATOR": "18 SPCS",
        "OBJECT_NAME": "GALILEO 7 (263)",
        "OBJECT_ID": "2015-017A",
        "CENTER_NAME": "EARTH",
        "REF_FRAME": "TEME",
        "TIME_SYSTEM": "UTC",
        "MEAN_ELEMENT_THEORY": "SGP4",
        "EPOCH": "2025-03-02T00:18:22.686048",
        "MEAN_MOTION": "1.70475386",
        "ECCENTRICITY": "0.00046610",
        "INCLINATION": "56.9059",
        "RA_OF_ASC_NODE": "354.4574",
        "ARG_OF_PERICENTER": "291.9904",
        "MEAN_ANOMALY": "67.9666",
        "EPHEMERIS_TYPE": "0",
        "CLASSIFICATION_TYPE": "U",
        "NORAD_CAT_ID": "40544",
        "ELEMENT_SET_NO": "999",
        "REV_AT_EPOCH": "6115",
        "BSTAR": "0.00000000000000",
        "MEAN_MOTION_DOT": "-0.00000087",
        "MEAN_MOTION_DDOT": "0.0000000000000",
        "SEMIMAJOR_AXIS": "29600.160",
        "PERIOD": "844.697",
        "APOAPSIS": "23235.821",
        "PERIAPSIS": "23208.228",
        "OBJECT_TYPE": "PAYLOAD",
        "RCS_SIZE": "LARGE",
        "COUNTRY_CODE": "ESA",
        "LAUNCH_DATE": "2015-03-27",
        "SITE": "FRGUI",
        "DECAY_DATE": null,
        "FILE": "4657142",
        "GP_ID": "282085708",
        "TLE_LINE0": "0 GALILEO 7 (263)",
        "TLE_LINE1": "1 40544U 15017A   25061.01276257 -.00000087  00000-0  00000-0 0  9991",
        "TLE_LINE2": "2 40544  56.9059 354.4574 0004661 291.9904  67.9666  1.70475386 61150"
    }
]